{
  "type": "FeatureCollection",
  "features": [
    {
      "type": "Feature",
      "properties": {
        "norad_id": 43058,
        "name": "GSAT0218 (GALILEO 22)",
        "group": "gnss",
        "lat": 54.787139029105106,
        "lon": -52.48852761759656,
        "alt_km": 23222.499177697035,
        "timestamp": "2025-12-06T07:31:40.480167+00:00",
        "meta_object_name": "GSAT0218 (GALILEO 22)",
        "meta_object_id": "2017-079D",
        "meta_epoch": "2025-12-03T05:49:40.297728",
        "meta_mean_motion": 1.70473824,
        "meta_eccentricity": 0.00029171,
        "meta_inclination": 55.1321,
        "meta_ra_of_asc_node": 226.8951,
        "meta_arg_of_pericenter": 304.1404,
        "meta_mean_anomaly": 55.9211,
        "meta_ephemeris_type": 0,
        "meta_classification_type": "U",
        "meta_norad_cat_id": 43058,
        "meta_element_set_no": 999,
        "meta_rev_at_epoch": 4967,
        "meta_bstar": 0,
        "meta_mean_motion_dot": 3.9e-07,
        "meta_mean_motion_ddot": 0,
        "tle_line1": "1 43058U 17079D   25337.24282752  .00000039  00000+0  00000+0 0  9996",
        "tle_line2": "2 43058  55.1321 226.8951 0002917 304.1404  55.9211  1.70473824 49672"
      },
      "geometry": {
        "type": "Point",
        "coordinates": [
          -52.48852761759656,
          54.787139029105106
        ]
      }
    },
    {
      "type": "Feature",
      "properties": {
        "norad_id": 43107,
        "name": "BEIDOU-3 M7 (C27)",
        "group": "gnss",
        "lat": 1.2217991143017697,
        "lon": 128.14428483081048,
        "alt_km": 21530.32297343856,
        "timestamp": "2025-12-06T07:31:40.480183+00:00",
        "meta_object_name": "BEIDOU-3 M7 (C27)",
        "meta_object_id": "2018-003A",
        "meta_epoch": "2025-12-04T23:22:06.674304",
        "meta_mean_motion": 1.86232224,
        "meta_eccentricity": 0.00026381,
        "meta_inclination": 54.5036,
        "meta_ra_of_asc_node": 309.0851,
        "meta_arg_of_pericenter": 70.1822,
        "meta_mean_anomaly": 289.8293,
        "meta_ephemeris_type": 0,
        "meta_classification_type": "U",
        "meta_norad_cat_id": 43107,
        "meta_element_set_no": 999,
        "meta_rev_at_epoch": 5373,
        "meta_bstar": 0,
        "meta_mean_motion_dot": -7e-07,
        "meta_mean_motion_ddot": 0,
        "tle_line1": "1 43107U 18003A   25338.97368836 -.00000070  00000+0  00000+0 0  9994",
        "tle_line2": "2 43107  54.5036 309.0851 0002638  70.1822 289.8293  1.86232224 53734"
      },
      "geometry": {
        "type": "Point",
        "coordinates": [
          128.14428483081048,
          1.2217991143017697
        ]
      }
    },
    {
      "type": "Feature",
      "properties": {
        "norad_id": 43108,
        "name": "BEIDOU-3 M8 (C28)",
        "group": "gnss",
        "lat": -28.06923730772145,
        "lon": 151.361223335605,
        "alt_km": 21524.80818473764,
        "timestamp": "2025-12-06T07:31:40.480195+00:00",
        "meta_object_name": "BEIDOU-3 M8 (C28)",
        "meta_object_id": "2018-003B",
        "meta_epoch": "2025-12-03T20:16:15.436704",
        "meta_mean_motion": 1.86230755,
        "meta_eccentricity": 0.0004789,
        "meta_inclination": 54.4975,
        "meta_ra_of_asc_node": 309.1071,
        "meta_arg_of_pericenter": 274.2636,
        "meta_mean_anomaly": 85.6663,
        "meta_ephemeris_type": 0,
        "meta_classification_type": "U",
        "meta_norad_cat_id": 43108,
        "meta_element_set_no": 999,
        "meta_rev_at_epoch": 5372,
        "meta_bstar": 0,
        "meta_mean_motion_dot": -6.8e-07,
        "meta_mean_motion_ddot": 0,
        "tle_line1": "1 43108U 18003B   25337.84462311 -.00000068  00000+0  00000+0 0  9990",
        "tle_line2": "2 43108  54.4975 309.1071 0004789 274.2636  85.6663  1.86230755 53729"
      },
      "geometry": {
        "type": "Point",
        "coordinates": [
          151.361223335605,
          -28.06923730772145
        ]
      }
    },
    {
      "type": "Feature",
      "properties": {
        "norad_id": 43207,
        "name": "BEIDOU-3 M4 (C22)",
        "group": "gnss",
        "lat": -55.43936950887135,
        "lon": -4.354280865978073,
        "alt_km": 21535.236333990015,
        "timestamp": "2025-12-06T07:31:40.480206+00:00",
        "meta_object_name": "BEIDOU-3 M4 (C22)",
        "meta_object_id": "2018-018A",
        "meta_epoch": "2025-12-02T03:19:43.852800",
        "meta_mean_motion": 1.86230706,
        "meta_eccentricity": 0.00040749,
        "meta_inclination": 56.4768,
        "meta_ra_of_asc_node": 69.6557,
        "meta_arg_of_pericenter": 15.1369,
        "meta_mean_anomaly": 344.8773,
        "meta_ephemeris_type": 0,
        "meta_classification_type": "U",
        "meta_norad_cat_id": 43207,
        "meta_element_set_no": 999,
        "meta_rev_at_epoch": 5307,
        "meta_bstar": 0,
        "meta_mean_motion_dot": -4.5e-07,
        "meta_mean_motion_ddot": 0,
        "tle_line1": "1 43207U 18018A   25336.13870200 -.00000045  00000+0  00000+0 0  9992",
        "tle_line2": "2 43207  56.4768  69.6557 0004074  15.1369 344.8773  1.86230706 53076"
      },
      "geometry": {
        "type": "Point",
        "coordinates": [
          -4.354280865978073,
          -55.43936950887135
        ]
      }
    },
    {
      "type": "Feature",
      "properties": {
        "norad_id": 43208,
        "name": "BEIDOU-3 M3 (C21)",
        "group": "gnss",
        "lat": -42.690332999267845,
        "lon": -72.84838603127969,
        "alt_km": 21531.044207803247,
        "timestamp": "2025-12-06T07:31:40.480217+00:00",
        "meta_object_name": "BEIDOU-3 M3 (C21)",
        "meta_object_id": "2018-018B",
        "meta_epoch": "2025-12-03T06:41:57.693408",
        "meta_mean_motion": 1.86230862,
        "meta_eccentricity": 0.0006282,
        "meta_inclination": 56.4772,
        "meta_ra_of_asc_node": 69.6218,
        "meta_arg_of_pericenter": 317.5873,
        "meta_mean_anomaly": 42.3668,
        "meta_ephemeris_type": 0,
        "meta_classification_type": "U",
        "meta_norad_cat_id": 43208,
        "meta_element_set_no": 999,
        "meta_rev_at_epoch": 5309,
        "meta_bstar": 0,
        "meta_mean_motion_dot": -4.9e-07,
        "meta_mean_motion_ddot": 0,
        "tle_line1": "1 43208U 18018B   25337.27913997 -.00000049  00000+0  00000+0 0  9994",
        "tle_line2": "2 43208  56.4772  69.6218 0006282 317.5873  42.3668  1.86230862 53096"
      },
      "geometry": {
        "type": "Point",
        "coordinates": [
          -72.84838603127969,
          -42.690332999267845
        ]
      }
    },
    {
      "type": "Feature",
      "properties": {
        "norad_id": 43245,
        "name": "BEIDOU-3 M9 (C29)",
        "group": "gnss",
        "lat": 54.36964964805214,
        "lon": 35.979638396819524,
        "alt_km": 21526.74356299471,
        "timestamp": "2025-12-06T07:31:40.480230+00:00",
        "meta_object_name": "BEIDOU-3 M9 (C29)",
        "meta_object_id": "2018-029A",
        "meta_epoch": "2025-12-05T02:32:47.739840",
        "meta_mean_motion": 1.86227814,
        "meta_eccentricity": 0.0001693,
        "meta_inclination": 54.3728,
        "meta_ra_of_asc_node": 306.734,
        "meta_arg_of_pericenter": 274.7649,
        "meta_mean_anomaly": 85.198,
        "meta_ephemeris_type": 0,
        "meta_classification_type": "U",
        "meta_norad_cat_id": 43245,
        "meta_element_set_no": 999,
        "meta_rev_at_epoch": 5228,
        "meta_bstar": 0,
        "meta_mean_motion_dot": -6.9e-07,
        "meta_mean_motion_ddot": 0,
        "tle_line1": "1 43245U 18029A   25339.10610810 -.00000069  00000+0  00000+0 0  9991",
        "tle_line2": "2 43245  54.3728 306.7340 0001693 274.7649  85.1980  1.86227814 52287"
      },
      "geometry": {
        "type": "Point",
        "coordinates": [
          35.979638396819524,
          54.36964964805214
        ]
      }
    },
    {
      "type": "Feature",
      "properties": {
        "norad_id": 43246,
        "name": "BEIDOU-3 M10 (C30)",
        "group": "gnss",
        "lat": 36.435403904934724,
        "lon": 94.75030680959478,
        "alt_km": 21531.444914402808,
        "timestamp": "2025-12-06T07:31:40.480241+00:00",
        "meta_object_name": "BEIDOU-3 M10 (C30)",
        "meta_object_id": "2018-029B",
        "meta_epoch": "2025-12-02T08:33:31.656096",
        "meta_mean_motion": 1.86228863,
        "meta_eccentricity": 0.00039643,
        "meta_inclination": 54.3728,
        "meta_ra_of_asc_node": 306.8573,
        "meta_arg_of_pericenter": 359.3208,
        "meta_mean_anomaly": 0.6665,
        "meta_ephemeris_type": 0,
        "meta_classification_type": "U",
        "meta_norad_cat_id": 43246,
        "meta_element_set_no": 999,
        "meta_rev_at_epoch": 5221,
        "meta_bstar": 0,
        "meta_mean_motion_dot": -6.2e-07,
        "meta_mean_motion_ddot": 0,
        "tle_line1": "1 43246U 18029B   25336.35661639 -.00000062  00000+0  00000+0 0  9994",
        "tle_line2": "2 43246  54.3728 306.8573 0003964 359.3208   0.6665  1.86228863 52211"
      },
      "geometry": {
        "type": "Point",
        "coordinates": [
          94.75030680959478,
          36.435403904934724
        ]
      }
    }
  ]
}